ORBCOMM FM38 [-]        
1 33060U 08031A   17345.36863602 -.00000011  00000-0  29208-4 0  9996
2 33060  48.4442 305.7893 0006609 224.9874 135.0504 14.73375298509564
